[{"OBJECT_NAME":"STARLINK-30208","OBJECT_ID":"2023-102M","EPOCH":"2026-03-09T22:00:01.999584","MEAN_MOTION":15.18316824,"ECCENTRICITY":0.00014024,"INCLINATION":42.9996,"RA_OF_ASC_NODE":246.5084,"ARG_OF_PERICENTER":264.9324,"MEAN_ANOMALY":100.8486,"EPHEMERIS_TYPE":0,"CLASSIFICATION_TYPE":"U","NORAD_CAT_ID":57415,"ELEMENT_SET_NO":999,"REV_AT_EPOCH":577,"BSTAR":0.005884723,"MEAN_MOTION_DOT":0.00124918,"MEAN_MOTION_DDOT":0},{"OBJECT_NAME":"OBJECT P","OBJECT_ID":"2025-313P","EPOCH":"2026-03-09T21:52:10.906176","MEAN_MOTION":15.22867124,"ECCENTRICITY":0.00138824,"INCLINATION":97.4038,"RA_OF_ASC_NODE":145.2697,"ARG_OF_PERICENTER":354.5628,"MEAN_ANOMALY":5.5456,"EPHEMERIS_TYPE":0,"CLASSIFICATION_TYPE":"U","NORAD_CAT_ID":67261,"ELEMENT_SET_NO":999,"REV_AT_EPOCH":1085,"BSTAR":0.00092209844,"MEAN_MOTION_DOT":0.00021628,"MEAN_MOTION_DDOT":0}]
